ISS (ZARYA)             
1 25544U 98067A   26039.59996980  .00008889  00000+0  17211-3 0  9992
2 25544  51.6313 216.1577 0011035  77.5493 282.6729 15.48484385551822
CSS (TIANHE)            
1 48274U 21035A   26039.39486025  .00021492  00000+0  26814-3 0  9994
2 48274  41.4686  26.2335 0005046  28.7158 331.3958 15.59352670273033
ISS (NAUKA)             
1 49044U 21066A   26039.59996981  .00008889  00000+0  17211-3 0  9999
2 49044  51.6313 216.1577 0011035  77.5493 282.6729 15.48484385230445
FREGAT DEB              
1 49271U 11037PF  26039.24170638  .00043431  00000+0  72139-1 0  9993
2 49271  51.6576  28.8822 0930442 351.7995   6.8516 12.38136467209048
CSS (WENTIAN)           
1 53239U 22085A   26039.39486025  .00021492  00000+0  26814-3 0  9997
2 53239  41.4686  26.2335 0005046  28.7158 331.3958 15.59352670173848
CSS (MENGTIAN)          
1 54216U 22143A   26039.39486025  .00021492  00000+0  26814-3 0  9998
2 54216  41.4686  26.2335 0005046  28.7158 331.3958 15.59352670158645
PROGRESS-MS 31          
1 64751U 25146A   26039.59996981  .00008889  00000+0  17211-3 0  9994
2 64751  51.6313 216.1577 0011035  77.5493 282.6729 15.48484385  6752
TIANZHOU-9              
1 64786U 25149A   26039.39486025  .00021492  00000+0  26814-3 0  9990
2 64786  41.4686  26.2335 0005046  28.7158 331.3958 15.59352670255309
DRAGON CRS-33           
1 65304U 25186A   26039.59996981  .00008889  00000+0  17211-3 0  9993
2 65304  51.6313 216.1577 0011035  77.5493 282.6729 15.48484385   111
PROGRESS-MS 32          
1 65586U 25204A   26039.59996981  .00008889  00000+0  17211-3 0  9996
2 65586  51.6313 216.1577 0011035  77.5493 282.6729 15.48484385   270
CYGNUS NG-23            
1 65616U 25208A   26039.59996981  .00008889  00000+0  17211-3 0  9994
2 65616  51.6313 216.1577 0011035  77.5493 282.6729 15.48484385   229
ISS OBJECT XK           
1 65731U 98067XK  26039.65872242  .00252784  00000+0  10501-2 0  9994
2 65731  51.6224 199.9982 0003671 274.6408  85.4176 15.84499255 22264
